[{"OBJECT_NAME":"GHGSAT-C5","OBJECT_ID":"2022-057N","EPOCH":"2026-03-09T21:50:12.501024","MEAN_MOTION":15.32921902,"ECCENTRICITY":0.00082696,"INCLINATION":97.6522,"RA_OF_ASC_NODE":212.4963,"ARG_OF_PERICENTER":109.8004,"MEAN_ANOMALY":250.413,"EPHEMERIS_TYPE":0,"CLASSIFICATION_TYPE":"U","NORAD_CAT_ID":52744,"ELEMENT_SET_NO":999,"REV_AT_EPOCH":21032,"BSTAR":0.00029214604,"MEAN_MOTION_DOT":9.218e-5,"MEAN_MOTION_DDOT":0},{"OBJECT_NAME":"STARLINK-32143","OBJECT_ID":"2024-132U","EPOCH":"2026-03-09T06:36:13.118976","MEAN_MOTION":15.30188061,"ECCENTRICITY":0.00012891,"INCLINATION":53.1612,"RA_OF_ASC_NODE":54.5906,"ARG_OF_PERICENTER":100.8585,"MEAN_ANOMALY":259.2561,"EPHEMERIS_TYPE":0,"CLASSIFICATION_TYPE":"U","NORAD_CAT_ID":60296,"ELEMENT_SET_NO":999,"REV_AT_EPOCH":9149,"BSTAR":-1.2130628e-5,"MEAN_MOTION_DOT":-7.18e-6,"MEAN_MOTION_DDOT":0}]
